HORYU-4                 
1 41340U 16012D   20247.87520761  .00000468  00000-0  28586-4 0  9994
2 41340  31.0042 192.3531 0014056 207.2476 152.7423 15.01546791249673
E-ST@R-II               
1 41459U 16025D   20247.83667832  .00001273  00000-0  68090-4 0  9995
2 41459  98.1118   1.9458 0163083 308.3087  50.3563 15.06610056239242
AAUSAT 4                
1 41460U 16025E   20247.78561623  .00001934  00000-0  97898-4 0  9994
2 41460  98.1087   4.5054 0151711 296.0677  62.4980 15.08990599239458
BEESAT-4                
1 41619U 16040W   20247.88286678  .00001377  00000-0  59346-4 0  9999
2 41619  97.3129 305.5399 0009305 261.5568  98.4616 15.24192977221341
CANX-7                  
1 41788U 16059F   20247.85444922  .00007479  00000-0  10042-2 0  9998
2 41788  98.2580 337.7444 0027321  62.0347 298.3875 14.79359099211407
RAVAN                   
1 41849U 16067B   20247.86470135  .00001137  00000-0  99867-4 0  9990
2 41849  97.9404 359.0797 0007592 358.1231   1.9961 14.98622719208361
CELTEE 1                
1 41850U 16067C   20247.86570628  .00000473  00000-0  46171-4 0  9992
2 41850  97.9339 356.5745 0008576 359.4130   0.7080 14.97222484208239
OPTICUBE 04             
1 41851U 16067D   20247.87670026 -.00000384  00000-0 -28138-4 0  9993
2 41851  97.9325 356.1621 0008887 359.2690   0.8516 14.96950930208214
AEROCUBE 8D             
1 41852U 16067E   20247.82632443 -.00000028  00000-0  29219-5 0  9996
2 41852  97.9320 355.9516 0009423 357.0878   3.0287 14.96945736208185
AEROCUBE 8C             
1 41853U 16067F   20247.85976348  .00000698  00000-0  66114-4 0  9991
2 41853  97.9328 355.8822 0009749   1.5549 358.5701 14.96916440208189
PROMETHEUS 2-1          
1 41854U 16067G   20247.87886540 -.00000196  00000-0 -11574-4 0  9993
2 41854  97.9336 356.2818 0010233 358.1058   2.0122 14.97257210208200
PROMETHEUS 2-3          
1 41855U 16067H   20247.81197885 -.00000182  00000-0 -10437-4 0  9997
2 41855  97.9338 356.2504 0010420 358.5711   1.5478 14.97266278208193
INS-1B                  
1 41954U 17008G   20247.89602901  .00001351  00000-0  57012-4 0  9998
2 41954  97.3480 310.8720 0009764  34.2367 325.9499 15.24952164197320
BGUSAT                  
1 41999U 17008BD  20247.74835099  .00002370  00000-0  89955-4 0  9990
2 41999  97.3603 315.3211 0008785  43.9971 316.1967 15.27793779196904
DIDO-2                  
1 42000U 17008BE  20247.74455448  .00000929  00000-0  40490-4 0  9999
2 42000  97.3488 311.1990 0009671  52.0716 308.1395 15.24596907196693
PEASSS                  
1 42015U 17008BV  20247.85944708  .00001221  00000-0  50595-4 0  9992
2 42015  97.3516 313.0743 0007618  56.3319 303.8645 15.25769440197307
AL-FARABI 1             
1 42016U 17008BW  20247.70526338  .00001587  00000-0  63268-4 0  9998
2 42016  97.3546 314.0996 0007431  56.3988 303.7959 15.26654430197464
NAYIF-1 (EO-88)         
1 42017U 17008BX  20247.87848985  .00001644  00000-0  65341-4 0  9990
2 42017  97.3541 314.2803 0007472  55.1037 305.0903 15.26697343197516
UCLSAT                  
1 42765U 17036A   20247.90299819  .00001269  00000-0  55677-4 0  9995
2 42765  97.2939 300.0138 0012943 107.5436 252.7217 15.23682234178520
LITUANICASAT-2          
1 42768U 17036D   20247.78371064  .00002251  00000-0  94567-4 0  9990
2 42768  97.2998 299.9996 0016335  99.4537 260.8548 15.24338469177778
AALTO-1                 
1 42775U 17036L   20247.89230626  .00000825  00000-0  39052-4 0  9991
2 42775  97.2913 297.5958 0015530 102.6248 257.6726 15.21946060177600
URSA MAIOR              
1 42776U 17036M   20247.87196957  .00000893  00000-0  41818-4 0  9996
2 42776  97.2926 297.8950 0015333 102.3470 257.9484 15.22137999177614
COMPASS 2               
1 42777U 17036N   20247.88051525  .00001735  00000-0  74039-4 0  9996
2 42777  97.2984 300.4813 0013965 100.1101 260.1713 15.24139892177745
DIAMOND RED             
1 42783U 17036U   20247.86792877  .00001029  00000-0  46647-4 0  9993
2 42783  97.2939 299.1657 0013640 109.9369 250.3339 15.22967684177689
PEGASUS                 
1 42784U 17036V   20247.68168553  .00001185  00000-0  52666-4 0  9993
2 42784  97.2945 299.4563 0013484 109.2730 250.9967 15.23363646177689
DIAMOND GREEN           
1 42785U 17036W   20247.86672390  .00000825  00000-0  37985-4 0  9990
2 42785  97.2942 299.2025 0013531 110.4639 249.8052 15.22964488177753
DIAMOND BLUE            
1 42786U 17036X   20247.86592299  .00001029  00000-0  46630-4 0  9994
2 42786  97.2941 299.1965 0013376 110.6224 249.6448 15.22967692177751
NUDTSAT                 
1 42787U 17036Y   20247.93224955  .00001377  00000-0  58351-4 0  9993
2 42787  97.2990 301.2817 0012458 100.0960 260.1691 15.24740718177654
SUCHAI                  
1 42788U 17036Z   20247.87401642  .00001448  00000-0  62634-4 0  9995
2 42788  97.2953 300.3060 0013048 107.0074 253.2595 15.23942679177827
SKCUBE                  
1 42789U 17036AA  20247.86284516  .00001310  00000-0  57236-4 0  9994
2 42789  97.2947 300.1230 0012935 107.4049 252.8604 15.23772042177739
VZLUSAT-1               
1 42790U 17036AB  20247.85638344  .00001758  00000-0  73718-4 0  9996
2 42790  97.2972 301.2020 0012486 105.2550 255.0070 15.24731817177796
ROBUSTA-1B              
1 42792U 17036AD  20247.87241488  .00001421  00000-0  61489-4 0  9998
2 42792  97.2951 300.4085 0012505 107.4682 252.7924 15.23970108177765
CICERO 6                
1 42793U 17036AE  20247.89430189  .00000936  00000-0  42352-4 0  9997
2 42793  97.2924 299.7327 0011820 109.7688 250.4825 15.23262052177807
D-SAT                   
1 42794U 17036AF  20247.87945282  .00000183  00000-0  20930-4 0  9993
2 42794  97.4890 276.6334 0127736 103.0949 258.4563 14.91312637174381
CORVUS BC2              
1 42846U 17042X   20247.76740838  .00000151  00000-0  20046-4 0  9999
2 42846  97.5111 127.7493 0010254  25.1986 334.9732 14.92132434171087
CORVUS BC1              
1 42847U 17042Y   20247.62367003  .00000305  00000-0  35068-4 0  9995
2 42847  97.5113 127.7962 0009898  25.2569 334.9133 14.92234111171069
MIRATA                  
1 43015U 17073C   20247.77835734  .00000678  00000-0  57325-4 0  9997
2 43015  97.7129 157.0095 0253378 152.7458 208.7318 14.79766575150807
MAKERSAT 0              
1 43016U 17073D   20247.69590995  .00000486  00000-0  42653-4 0  9991
2 43016  97.7166 157.0943 0256287 154.2773 207.1450 14.79300320150778
DELLINGR (RBLE)         
1 43021U 98067NJ  20247.70447174  .00015394  00000-0  11578-3 0  9996
2 43021  51.6336 239.3636 0002136  37.2381 322.8766 15.72773769159175
AEROCUBE 7B (OCSD B)    
1 43042U 17071F   20247.75554659  .00004067  00000-0  96427-4 0  9999
2 43042  51.6380  42.1975 0004167 339.3710  20.7107 15.44121943154472
AEROCUBE 7C (OCSD C)    
1 43043U 17071G   20247.82496229  .00004308  00000-0  10167-3 0  9990
2 43043  51.6381  41.9262 0004431 343.4136  16.6705 15.44096301154457
CHEFSAT                 
1 43044U 17071H   20247.81529887  .00008632  00000-0  16197-3 0  9990
2 43044  51.6384  24.1710 0004213 350.0706  10.0199 15.49473880154694
ASGARDIA 1              
1 43049U 17071N   20247.81699275  .00003748  00000-0  89592-4 0  9997
2 43049  51.6392  41.2062 0002329   5.5696 354.5316 15.44109301154465
ISARA                   
1 43050U 17071P   20247.72327204  .00007751  00000-0  15235-3 0  9999
2 43050  51.6368  27.9138 0002271   5.4532 354.6480 15.48294487154635
PROPCUBE 2 (FAUNA)      
1 43052U 17071R   20247.71454069  .00004377  00000-0  10145-3 0  9996
2 43052  51.6385  39.7880 0002237   3.2167 356.8833 15.44601441154468
CORVUS BC3              
1 43118U 18004H   20247.78793556  .00000846  00000-0  38402-4 0  9994
2 43118  97.4384 317.4026 0011556 131.7439 228.4788 15.23470353146927
MICROMAS-2A             
1 43131U 18004W   20247.77595625  .00001949  00000-0  79677-4 0  9999
2 43131  97.4441 319.4100 0010502 129.5297 230.6871 15.25522092147039
SPACEBEE-4              
1 43139U 18004AE  20247.87217906  .00002752  00000-0  10682-3 0  9994
2 43139  97.4477 320.8844 0009858 129.3612 230.8502 15.26923546147121
SPACEBEE-3              
1 43140U 18004AF  20247.63750157  .00003533  00000-0  13234-3 0  9994
2 43140  97.4497 321.4657 0009577 128.4238 231.7862 15.27906329147137
SPACEBEE-2              
1 43141U 18004AG  20247.92817713  .00003664  00000-0  13578-3 0  9995
2 43141  97.4510 322.0669 0009563 126.8522 233.3596 15.28243837147194
SPACEBEE-1              
1 43142U 18004AH  20247.87686038  .00004079  00000-0  14904-3 0  9999
2 43142  97.4515 322.3251 0009529 126.7675 233.4441 15.28635600147193
CICERO 7                
1 43143U 18004AJ  20247.84120627  .00001768  00000-0  72559-4 0  9997
2 43143  97.4415 319.6382 0008562 135.8745 224.3177 15.25541386147067
GOMX-4B                 
1 43196U 18015E   20247.86447929  .00000749  00000-0  33501-4 0  9998
2 43196  97.4484  15.8484 0018630 184.1126 175.9961 15.24319385143841
GOMX-4A                 
1 43197U 18015F   20247.88323770  .00001070  00000-0  46155-4 0  9995
2 43197  97.4467  15.9836 0018704 184.5156 293.4139 15.24609439143861
UBAKUSAT                
1 43467U 98067NQ  20247.40034126  .00040241  00000-0  21476-3 0  9993
2 43467  51.6329 239.4020 0002799  45.0228 315.1000 15.79968983132416
CUBERRT                 
1 43546U 98067NU  20247.86791462  .00058046  00000-0  34776-3 0  9993
2 43546  51.6313 238.0677 0003180  44.2735 315.8519 15.77230540122600
TEMPEST-D               
1 43547U 98067NV  20247.79687164  .00007007  00000-0  79823-4 0  9993
2 43547  51.6347 276.0781 0004952   0.0018   0.0975 15.63520571121775
RAINCUBE                
1 43548U 98067NW  20247.30574771  .00041770  00000-0  23336-3 0  9992
2 43548  51.6282 248.4987 0005314  41.1801 318.9600 15.78926346122542
HALOSAT                 
1 43549U 98067NX  20247.86543389  .00032857  00000-0  19543-3 0  9996
2 43549  51.6330 247.1080 0005139  48.5115 311.6326 15.77646368122177
